{
  "type": "FeatureCollection",
  "features": [
    {
      "type": "Feature",
      "properties": {
        "norad_id": 36828,
        "name": "BEIDOU-2 IGSO-1 (C06)",
        "group": "beidou",
        "lat": 14.20974147935752,
        "lon": -25.80651789931836,
        "alt_km": 35653.93054782182,
        "timestamp": "2025-12-05T09:41:19.392917+00:00",
        "meta_object_name": "BEIDOU-2 IGSO-1 (C06)",
        "meta_object_id": "2010-036A",
        "meta_epoch": "2025-12-04T10:48:55.401408",
        "meta_mean_motion": 1.0027836,
        "meta_eccentricity": 0.0051251,
        "meta_inclination": 54.2839,
        "meta_ra_of_asc_node": 164.7233,
        "meta_arg_of_pericenter": 215.778,
        "meta_mean_anomaly": 323.0243,
        "meta_ephemeris_type": 0,
        "meta_classification_type": "U",
        "meta_norad_cat_id": 36828,
        "meta_element_set_no": 999,
        "meta_rev_at_epoch": 5614,
        "meta_bstar": 0,
        "meta_mean_motion_dot": -3.3e-07,
        "meta_mean_motion_ddot": 0,
        "tle_line1": "1 36828U 10036A   25338.45064122 -.00000033  00000+0  00000+0 0  9997",
        "tle_line2": "2 36828  54.2839 164.7233 0051251 215.7780 323.0243  1.00278360 56140"
      },
      "geometry": {
        "type": "Point",
        "coordinates": [
          -25.80651789931836,
          14.20974147935752
        ]
      }
    },
    {
      "type": "Feature",
      "properties": {
        "norad_id": 37210,
        "name": "BEIDOU-2 G4 (C04)",
        "group": "beidou",
        "lat": -2.4051860143316963,
        "lon": 20.001854956339507,
        "alt_km": 35810.53304848836,
        "timestamp": "2025-12-05T09:41:19.392941+00:00",
        "meta_object_name": "BEIDOU-2 G4 (C04)",
        "meta_object_id": "2010-057A",
        "meta_epoch": "2025-12-04T16:11:57.897024",
        "meta_mean_motion": 1.00271291,
        "meta_eccentricity": 0.0010952,
        "meta_inclination": 3.1633,
        "meta_ra_of_asc_node": 69.9584,
        "meta_arg_of_pericenter": 188.8835,
        "meta_mean_anomaly": 217.9649,
        "meta_ephemeris_type": 0,
        "meta_classification_type": "U",
        "meta_norad_cat_id": 37210,
        "meta_element_set_no": 999,
        "meta_rev_at_epoch": 5534,
        "meta_bstar": 0,
        "meta_mean_motion_dot": -9.9e-07,
        "meta_mean_motion_ddot": 0,
        "tle_line1": "1 37210U 10057A   25338.67497566 -.00000099  00000+0  00000+0 0  9994",
        "tle_line2": "2 37210   3.1633  69.9584 0010952 188.8835 217.9649  1.00271291 55348"
      },
      "geometry": {
        "type": "Point",
        "coordinates": [
          20.001854956339507,
          -2.4051860143316963
        ]
      }
    },
    {
      "type": "Feature",
      "properties": {
        "norad_id": 37256,
        "name": "BEIDOU-2 IGSO-2 (C07)",
        "group": "beidou",
        "lat": 36.18764020346587,
        "lon": -44.49902404255913,
        "alt_km": 35975.73077549266,
        "timestamp": "2025-12-05T09:41:19.392955+00:00",
        "meta_object_name": "BEIDOU-2 IGSO-2 (C07)",
        "meta_object_id": "2010-068A",
        "meta_epoch": "2025-12-03T17:22:36.030432",
        "meta_mean_motion": 1.0028871,
        "meta_eccentricity": 0.00492335,
        "meta_inclination": 47.9043,
        "meta_ra_of_asc_node": 274.2613,
        "meta_arg_of_pericenter": 216.1442,
        "meta_mean_anomaly": 310.2369,
        "meta_ephemeris_type": 0,
        "meta_classification_type": "U",
        "meta_norad_cat_id": 37256,
        "meta_element_set_no": 999,
        "meta_rev_at_epoch": 5483,
        "meta_bstar": 0,
        "meta_mean_motion_dot": -2.25e-06,
        "meta_mean_motion_ddot": 0,
        "tle_line1": "1 37256U 10068A   25337.72402813 -.00000225  00000+0  00000+0 0  9993",
        "tle_line2": "2 37256  47.9043 274.2613 0049233 216.1442 310.2369  1.00288710 54839"
      },
      "geometry": {
        "type": "Point",
        "coordinates": [
          -44.49902404255913,
          36.18764020346587
        ]
      }
    },
    {
      "type": "Feature",
      "properties": {
        "norad_id": 37384,
        "name": "BEIDOU-2 IGSO-3 (C08)",
        "group": "beidou",
        "lat": -58.29849562454845,
        "lon": -16.72943265602352,
        "alt_km": 35815.85627293938,
        "timestamp": "2025-12-05T09:41:19.392969+00:00",
        "meta_object_name": "BEIDOU-2 IGSO-3 (C08)",
        "meta_object_id": "2011-013A",
        "meta_epoch": "2025-12-03T14:52:09.520896",
        "meta_mean_motion": 1.00272128,
        "meta_eccentricity": 0.00353922,
        "meta_inclination": 62.1308,
        "meta_ra_of_asc_node": 42.005,
        "meta_arg_of_pericenter": 186.5359,
        "meta_mean_anomaly": 174.9093,
        "meta_ephemeris_type": 0,
        "meta_classification_type": "U",
        "meta_norad_cat_id": 37384,
        "meta_element_set_no": 999,
        "meta_rev_at_epoch": 5370,
        "meta_bstar": 0,
        "meta_mean_motion_dot": -1.99e-06,
        "meta_mean_motion_ddot": 0,
        "tle_line1": "1 37384U 11013A   25337.61955464 -.00000199  00000+0  00000+0 0  9999",
        "tle_line2": "2 37384  62.1308  42.0050 0035392 186.5359 174.9093  1.00272128 53708"
      },
      "geometry": {
        "type": "Point",
        "coordinates": [
          -16.72943265602352,
          -58.29849562454845
        ]
      }
    },
    {
      "type": "Feature",
      "properties": {
        "norad_id": 37763,
        "name": "BEIDOU-2 IGSO-4 (C09)",
        "group": "beidou",
        "lat": 27.987889706087117,
        "lon": -34.85198120253165,
        "alt_km": 35721.44068867982,
        "timestamp": "2025-12-05T09:41:19.392982+00:00",
        "meta_object_name": "BEIDOU-2 IGSO-4 (C09)",
        "meta_object_id": "2011-038A",
        "meta_epoch": "2025-12-01T12:32:09.960864",
        "meta_mean_motion": 1.00284074,
        "meta_eccentricity": 0.01487808,
        "meta_inclination": 54.5808,
        "meta_ra_of_asc_node": 167.4476,
        "meta_arg_of_pericenter": 230.2031,
        "meta_mean_anomaly": 315.0387,
        "meta_ephemeris_type": 0,
        "meta_classification_type": "U",
        "meta_norad_cat_id": 37763,
        "meta_element_set_no": 999,
        "meta_rev_at_epoch": 5266,
        "meta_bstar": 0,
        "meta_mean_motion_dot": 1.01e-06,
        "meta_mean_motion_ddot": 0,
        "tle_line1": "1 37763U 11038A   25335.52233751  .00000101  00000+0  00000+0 0  9995",
        "tle_line2": "2 37763  54.5808 167.4476 0148780 230.2031 315.0387  1.00284074 52664"
      },
      "geometry": {
        "type": "Point",
        "coordinates": [
          -34.85198120253165,
          27.987889706087117
        ]
      }
    },
    {
      "type": "Feature",
      "properties": {
        "norad_id": 37948,
        "name": "BEIDOU-2 IGSO-5 (C10)",
        "group": "beidou",
        "lat": 27.5637532453086,
        "lon": -58.13900414079107,
        "alt_km": 36241.61360674583,
        "timestamp": "2025-12-05T09:41:19.392996+00:00",
        "meta_object_name": "BEIDOU-2 IGSO-5 (C10)",
        "meta_object_id": "2011-073A",
        "meta_epoch": "2025-12-03T19:19:36.726816",
        "meta_mean_motion": 1.00292258,
        "meta_eccentricity": 0.01106709,
        "meta_inclination": 48.0381,
        "meta_ra_of_asc_node": 273.9687,
        "meta_arg_of_pericenter": 222.1681,
        "meta_mean_anomaly": 319.0723,
        "meta_ephemeris_type": 0,
        "meta_classification_type": "U",
        "meta_norad_cat_id": 37948,
        "meta_element_set_no": 999,
        "meta_rev_at_epoch": 5117,
        "meta_bstar": 0,
        "meta_mean_motion_dot": -1.77e-06,
        "meta_mean_motion_ddot": 0,
        "tle_line1": "1 37948U 11073A   25337.80528619 -.00000177  00000+0  00000+0 0  9996",
        "tle_line2": "2 37948  48.0381 273.9687 0110670 222.1681 319.0723  1.00292258 51174"
      },
      "geometry": {
        "type": "Point",
        "coordinates": [
          -58.13900414079107,
          27.5637532453086
        ]
      }
    },
    {
      "type": "Feature",
      "properties": {
        "norad_id": 38091,
        "name": "BEIDOU-2 G5 (C05)",
        "group": "beidou",
        "lat": -1.4587782284910273,
        "lon": -81.5852683731545,
        "alt_km": 35736.07187461612,
        "timestamp": "2025-12-05T09:41:19.393008+00:00",
        "meta_object_name": "BEIDOU-2 G5 (C05)",
        "meta_object_id": "2012-008A",
        "meta_epoch": "2025-12-04T17:25:50.820960",
        "meta_mean_motion": 1.00272702,
        "meta_eccentricity": 0.0012417,
        "meta_inclination": 3.088,
        "meta_ra_of_asc_node": 70.7318,
        "meta_arg_of_pericenter": 225.7173,
        "meta_mean_anomaly": 97.5153,
        "meta_ephemeris_type": 0,
        "meta_classification_type": "U",
        "meta_norad_cat_id": 38091,
        "meta_element_set_no": 999,
        "meta_rev_at_epoch": 5041,
        "meta_bstar": 0,
        "meta_mean_motion_dot": 6.9e-07,
        "meta_mean_motion_ddot": 0,
        "tle_line1": "1 38091U 12008A   25338.72628265  .00000069  00000+0  00000+0 0  9994",
        "tle_line2": "2 38091   3.0880  70.7318 0012417 225.7173  97.5153  1.00272702 50411"
      },
      "geometry": {
        "type": "Point",
        "coordinates": [
          -81.5852683731545,
          -1.4587782284910273
        ]
      }
    }
  ]
}